{"type": "FeatureCollection", "features": [ {"type": "Feature", "properties": {"norad_id": 66696, "name": "IRIDE FM2", "group": "last-30-days", "lat": 16.188143641655554, "lon": 64.74708228981562, "alt_km": 514.7632589471286, "timestamp": "2025-12-21T07:34:33.301078+00:00", "meta": {"OBJECT_NAME": "IRIDE FM2", "OBJECT_ID": "2025-276AG", "EPOCH": "2025-12-20T22:00:29.129184", "MEAN_MOTION": 15.17380205, "ECCENTRICITY": 0.00024465, "INCLINATION": 97.4398, "RA_OF_ASC_NODE": 66.5296, "ARG_OF_PERICENTER": 278.7779, "MEAN_ANOMALY": 81.3177, "EPHEMERIS_TYPE": 0, "CLASSIFICATION_TYPE": "U", "NORAD_CAT_ID": 66696, "ELEMENT_SET_NO": 999, "REV_AT_EPOCH": 336, "BSTAR": 0.00033235292, "MEAN_MOTION_DOT": 6.574e-05, "MEAN_MOTION_DDOT": 0}, "tle": {"line1": "1 66696U 25276AG  25354.91700381  .00006574  00000+0  33235-3 0  9993", "line2": "2 66696  97.4398  66.5296 0002446 278.7779  81.3177 15.17380205  3363"}}, "geometry": {"type": "Point", "coordinates": [64.74708228981562, 16.188143641655554]}}, {"type": "Feature", "properties": {"norad_id": 66697, "name": "IRIDE FM3", "group": "last-30-days", "lat": 74.90396527437149, "lon": 37.97307180845815, "alt_km": 504.24587595891444, "timestamp": "2025-12-21T07:34:33.301087+00:00", "meta": {"OBJECT_NAME": "IRIDE FM3", "OBJECT_ID": "2025-276AH", "EPOCH": "2025-12-20T18:35:00.621600", "MEAN_MOTION": 15.1812615, "ECCENTRICITY": 0.00010458, "INCLINATION": 97.4395, "RA_OF_ASC_NODE": 66.415, "ARG_OF_PERICENTER": 158.6893, "MEAN_ANOMALY": 201.4385, "EPHEMERIS_TYPE": 0, "CLASSIFICATION_TYPE": "U", "NORAD_CAT_ID": 66697, "ELEMENT_SET_NO": 999, "REV_AT_EPOCH": 334, "BSTAR": 0.00032706991, "MEAN_MOTION_DOT": 6.608e-05, "MEAN_MOTION_DDOT": 0}, "tle": {"line1": "1 66697U 25276AH  25354.77431275  .00006608  00000+0  32707-3 0  9992", "line2": "2 66697  97.4395  66.4150 0001045 158.6893 201.4385 15.18126150  3348"}}, "geometry": {"type": "Point", "coordinates": [37.97307180845815, 74.90396527437149]}}, {"type": "Feature", "properties": {"norad_id": 66698, "name": "IRIDE FM4", "group": "last-30-days", "lat": 11.879234671217896, "lon": 65.34502553831953, "alt_km": 515.8462149492898, "timestamp": "2025-12-21T07:34:33.301097+00:00", "meta": {"OBJECT_NAME": "IRIDE FM4", "OBJECT_ID": "2025-276AJ", "EPOCH": "2025-12-20T22:01:36.199776", "MEAN_MOTION": 15.17306082, "ECCENTRICITY": 0.00027473, "INCLINATION": 97.4395, "RA_OF_ASC_NODE": 66.5294, "ARG_OF_PERICENTER": 269.2565, "MEAN_ANOMALY": 90.8354, "EPHEMERIS_TYPE": 0, "CLASSIFICATION_TYPE": "U", "NORAD_CAT_ID": 66698, "ELEMENT_SET_NO": 999, "REV_AT_EPOCH": 336, "BSTAR": 0.00032906403, "MEAN_MOTION_DOT": 6.494e-05, "MEAN_MOTION_DDOT": 0}, "tle": {"line1": "1 66698U 25276AJ  25354.91778009  .00006494  00000+0  32906-3 0  9992", "line2": "2 66698  97.4395  66.5294 0002747 269.2565  90.8354 15.17306082  3365"}}, "geometry": {"type": "Point", "coordinates": [65.34502553831953, 11.879234671217896]}}, {"type": "Feature", "properties": {"norad_id": 66699, "name": "IRIDE FM5", "group": "last-30-days", "lat": 12.64014393014501, "lon": 65.24463469954135, "alt_km": 515.6696891830406, "timestamp": "2025-12-21T07:34:33.301106+00:00", "meta": {"OBJECT_NAME": "IRIDE FM5", "OBJECT_ID": "2025-276AK", "EPOCH": "2025-12-20T15:41:32.697024", "MEAN_MOTION": 15.17316331, "ECCENTRICITY": 0.00025987, "INCLINATION": 97.4381, "RA_OF_ASC_NODE": 66.2738, "ARG_OF_PERICENTER": 271.4431, "MEAN_ANOMALY": 88.6505, "EPHEMERIS_TYPE": 0, "CLASSIFICATION_TYPE": "U", "NORAD_CAT_ID": 66699, "ELEMENT_SET_NO": 999, "REV_AT_EPOCH": 332, "BSTAR": 7.6340004e-05, "MEAN_MOTION_DOT": 1.455e-05, "MEAN_MOTION_DDOT": 0}, "tle": {"line1": "1 66699U 25276AK  25354.65385066  .00001455  00000+0  76340-4 0  9994", "line2": "2 66699  97.4381  66.2738 0002598 271.4431  88.6505 15.17316331  3329"}}, "geometry": {"type": "Point", "coordinates": [65.24463469954135, 12.64014393014501]}}, {"type": "Feature", "properties": {"norad_id": 66700, "name": "IRIDE FM6", "group": "last-30-days", "lat": 77.52182292408644, "lon": 30.74681137395114, "alt_km": 503.9867562401023, "timestamp": "2025-12-21T07:34:33.301115+00:00", "meta": {"OBJECT_NAME": "IRIDE FM6", "OBJECT_ID": "2025-276AL", "EPOCH": "2025-12-20T18:34:12.726624", "MEAN_MOTION": 15.18178434, "ECCENTRICITY": 0.00014736, "INCLINATION": 97.4431, "RA_OF_ASC_NODE": 66.425, "ARG_OF_PERICENTER": 167.5217, "MEAN_ANOMALY": 192.6054, "EPHEMERIS_TYPE": 0, "CLASSIFICATION_TYPE": "U", "NORAD_CAT_ID": 66700, "ELEMENT_SET_NO": 999, "REV_AT_EPOCH": 334, "BSTAR": 0.00033731531, "MEAN_MOTION_DOT": 6.828e-05, "MEAN_MOTION_DDOT": 0}, "tle": {"line1": "1 66700U 25276AL  25354.77375841  .00006828  00000+0  33732-3 0  9996", "line2": "2 66700  97.4431  66.4250 0001473 167.5217 192.6054 15.18178434  3345"}}, "geometry": {"type": "Point", "coordinates": [30.74681137395114, 77.52182292408644]}}, {"type": "Feature", "properties": {"norad_id": 66701, "name": "IRIDE FM7", "group": "last-30-days", "lat": 12.709617529845922, "lon": 65.24041471910205, "alt_km": 515.0357193798473, "timestamp": "2025-12-21T07:34:33.301124+00:00", "meta": {"OBJECT_NAME": "IRIDE FM7", "OBJECT_ID": "2025-276AM", "EPOCH": "2025-12-20T22:01:24.547008", "MEAN_MOTION": 15.17368661, "ECCENTRICITY": 0.00025709, "INCLINATION": 97.4405, "RA_OF_ASC_NODE": 66.5385, "ARG_OF_PERICENTER": 284.0181, "MEAN_ANOMALY": 76.0767, "EPHEMERIS_TYPE": 0, "CLASSIFICATION_TYPE": "U", "NORAD_CAT_ID": 66701, "ELEMENT_SET_NO": 999, "REV_AT_EPOCH": 336, "BSTAR": 0.0011719096, "MEAN_MOTION_DOT": 0.00023392, "MEAN_MOTION_DDOT": 0}, "tle": {"line1": "1 66701U 25276AM  25354.91764522  .00023392  00000+0  11719-2 0  9996", "line2": "2 66701  97.4405  66.5385 0002570 284.0181  76.0767 15.17368661  3361"}}, "geometry": {"type": "Point", "coordinates": [65.24041471910205, 12.709617529845922]}}, {"type": "Feature", "properties": {"norad_id": 66702, "name": "IRIDE FM8", "group": "last-30-days", "lat": 13.554036972608671, "lon": 65.11748566977464, "alt_km": 515.353002582483, "timestamp": "2025-12-21T07:34:33.301134+00:00", "meta": {"OBJECT_NAME": "IRIDE FM8", "OBJECT_ID": "2025-276AN", "EPOCH": "2025-12-20T22:01:10.576992", "MEAN_MOTION": 15.17354258, "ECCENTRICITY": 0.00028079, "INCLINATION": 97.4408, "RA_OF_ASC_NODE": 66.5319, "ARG_OF_PERICENTER": 274.0649, "MEAN_ANOMALY": 86.0264, "EPHEMERIS_TYPE": 0, "CLASSIFICATION_TYPE": "U", "NORAD_CAT_ID": 66702, "ELEMENT_SET_NO": 999, "REV_AT_EPOCH": 336, "BSTAR": 0.00035822095, "MEAN_MOTION_DOT": 7.086e-05, "MEAN_MOTION_DDOT": 0}, "tle": {"line1": "1 66702U 25276AN  25354.91748353  .00007086  00000+0  35822-3 0  9995", "line2": "2 66702  97.4408  66.5319 0002807 274.0649  86.0264 15.17354258  3363"}}, "geometry": {"type": "Point", "coordinates": [65.11748566977464, 13.554036972608671]}}, {"type": "Feature", "properties": {"norad_id": 66703, "name": "PELICAN-6", "group": "last-30-days", "lat": 20.777171256892522, "lon": 64.08517046205735, "alt_km": 514.2991450187355, "timestamp": "2025-12-21T07:34:33.301143+00:00", "meta": {"OBJECT_NAME": "PELICAN-6", "OBJECT_ID": "2025-276AP", "EPOCH": "2025-12-20T21:59:14.507232", "MEAN_MOTION": 15.17321651, "ECCENTRICITY": 9.333e-05, "INCLINATION": 97.4417, "RA_OF_ASC_NODE": 66.5353, "ARG_OF_PERICENTER": 260.4048, "MEAN_ANOMALY": 99.708, "EPHEMERIS_TYPE": 0, "CLASSIFICATION_TYPE": "U", "NORAD_CAT_ID": 66703, "ELEMENT_SET_NO": 999, "REV_AT_EPOCH": 336, "BSTAR": 0.00025206281, "MEAN_MOTION_DOT": 4.96e-05, "MEAN_MOTION_DDOT": 0}, "tle": {"line1": "1 66703U 25276AP  25354.91614013  .00004960  00000+0  25206-3 0  9994", "line2": "2 66703  97.4417  66.5353 0000933 260.4048  99.7080 15.17321651  3360"}}, "geometry": {"type": "Point", "coordinates": [64.08517046205735, 20.777171256892522]}}, {"type": "Feature", "properties": {"norad_id": 66704, "name": "FLOCK 4H-1", "group": "last-30-days", "lat": 71.27646676760344, "lon": 44.26586177721198, "alt_km": 505.10114324963524, "timestamp": "2025-12-21T07:34:33.301152+00:00", "meta": {"OBJECT_NAME": "FLOCK 4H-1", "OBJECT_ID": "2025-276AQ", "EPOCH": "2025-12-20T18:36:02.285280", "MEAN_MOTION": 15.18052731, "ECCENTRICITY": 0.00016878, "INCLINATION": 97.4391, "RA_OF_ASC_NODE": 66.4094, "ARG_OF_PERICENTER": 177.4553, "MEAN_ANOMALY": 182.669, "EPHEMERIS_TYPE": 0, "CLASSIFICATION_TYPE": "U", "NORAD_CAT_ID": 66704, "ELEMENT_SET_NO": 999, "REV_AT_EPOCH": 334, "BSTAR": 0.00032803527, "MEAN_MOTION_DOT": 6.614e-05, "MEAN_MOTION_DDOT": 0}, "tle": {"line1": "1 66704U 25276AQ  25354.77502645  .00006614  00000+0  32804-3 0  9996", "line2": "2 66704  97.4391  66.4094 0001687 177.4553 182.6690 15.18052731  3346"}}, "geometry": {"type": "Point", "coordinates": [44.26586177721198, 71.27646676760344]}}, {"type": "Feature", "properties": {"norad_id": 66705, "name": "FLOCK 4H-2", "group": "last-30-days", "lat": 73.3230886834206, "lon": 41.08528383773647, "alt_km": 504.4754894492826, "timestamp": "2025-12-21T07:34:33.301161+00:00", "meta": {"OBJECT_NAME": "FLOCK 4H-2", "OBJECT_ID": "2025-276AR", "EPOCH": "2025-12-20T18:35:28.250592", "MEAN_MOTION": 15.18102919, "ECCENTRICITY": 0.00010335, "INCLINATION": 97.4385, "RA_OF_ASC_NODE": 66.4102, "ARG_OF_PERICENTER": 161.3115, "MEAN_ANOMALY": 198.8157, "EPHEMERIS_TYPE": 0, "CLASSIFICATION_TYPE": "U", "NORAD_CAT_ID": 66705, "ELEMENT_SET_NO": 999, "REV_AT_EPOCH": 334, "BSTAR": 0.00031898191, "MEAN_MOTION_DOT": 6.439e-05, "MEAN_MOTION_DDOT": 0}, "tle": {"line1": "1 66705U 25276AR  25354.77463253  .00006439  00000+0  31898-3 0  9995", "line2": "2 66705  97.4385  66.4102 0001033 161.3115 198.8157 15.18102919  3342"}}, "geometry": {"type": "Point", "coordinates": [41.08528383773647, 73.3230886834206]}}]}